[{"OBJECT_NAME":"ORBCOMM FM35","OBJECT_ID":"1999-065F","EPOCH":"2026-03-07T00:38:55.097376","MEAN_MOTION":14.37866838,"ECCENTRICITY":0.0003366,"INCLINATION":45.0395,"RA_OF_ASC_NODE":291.6953,"ARG_OF_PERICENTER":281.3634,"MEAN_ANOMALY":78.6837,"EPHEMERIS_TYPE":0,"CLASSIFICATION_TYPE":"U","NORAD_CAT_ID":25985,"ELEMENT_SET_NO":999,"REV_AT_EPOCH":37260,"BSTAR":0.00044088,"MEAN_MOTION_DOT":1.2e-5,"MEAN_MOTION_DDOT":0},{"OBJECT_NAME":"ORBCOMM FM34","OBJECT_ID":"1999-065G","EPOCH":"2026-03-06T23:56:39.886368","MEAN_MOTION":14.37778413,"ECCENTRICITY":0.0003191,"INCLINATION":45.0391,"RA_OF_ASC_NODE":292.3436,"ARG_OF_PERICENTER":224.6763,"MEAN_ANOMALY":135.3828,"EPHEMERIS_TYPE":0,"CLASSIFICATION_TYPE":"U","NORAD_CAT_ID":25986,"ELEMENT_SET_NO":999,"REV_AT_EPOCH":37271,"BSTAR":0.00037503,"MEAN_MOTION_DOT":9.97e-6,"MEAN_MOTION_DDOT":0},{"OBJECT_NAME":"ORBCOMM FM38","OBJECT_ID":"2008-031A","EPOCH":"2026-03-07T05:33:34.453728","MEAN_MOTION":14.82720525,"ECCENTRICITY":0.0003813,"INCLINATION":48.4385,"RA_OF_ASC_NODE":140.4007,"ARG_OF_PERICENTER":97.1034,"MEAN_ANOMALY":263.0316,"EPHEMERIS_TYPE":0,"CLASSIFICATION_TYPE":"U","NORAD_CAT_ID":33060,"ELEMENT_SET_NO":999,"REV_AT_EPOCH":95376,"BSTAR":0.00030548,"MEAN_MOTION_DOT":2.276e-5,"MEAN_MOTION_DDOT":0},{"OBJECT_NAME":"ORBCOMM FM41","OBJECT_ID":"2008-031B","EPOCH":"2026-03-06T10:56:14.870688","MEAN_MOTION":14.82251487,"ECCENTRICITY":0.00030737,"INCLINATION":48.4423,"RA_OF_ASC_NODE":152.833,"ARG_OF_PERICENTER":72.6188,"MEAN_ANOMALY":31.6399,"EPHEMERIS_TYPE":0,"CLASSIFICATION_TYPE":"U","NORAD_CAT_ID":33061,"ELEMENT_SET_NO":999,"REV_AT_EPOCH":95312,"BSTAR":0.00034223847,"MEAN_MOTION_DOT":2.546e-5,"MEAN_MOTION_DDOT":0},{"OBJECT_NAME":"ORBCOMM FM29","OBJECT_ID":"2008-031C","EPOCH":"2026-03-07T05:01:22.243008","MEAN_MOTION":14.82429788,"ECCENTRICITY":0.0004695,"INCLINATION":48.4375,"RA_OF_ASC_NODE":156.6659,"ARG_OF_PERICENTER":77.5704,"MEAN_ANOMALY":300.8972,"EPHEMERIS_TYPE":0,"CLASSIFICATION_TYPE":"U","NORAD_CAT_ID":33062,"ELEMENT_SET_NO":999,"REV_AT_EPOCH":95315,"BSTAR":0.00032103,"MEAN_MOTION_DOT":2.385e-5,"MEAN_MOTION_DDOT":0},{"OBJECT_NAME":"ORBCOMM FM39","OBJECT_ID":"2008-031D","EPOCH":"2026-03-07T00:50:56.512320","MEAN_MOTION":14.80809328,"ECCENTRICITY":0.000582,"INCLINATION":48.4387,"RA_OF_ASC_NODE":184.8051,"ARG_OF_PERICENTER":43.1074,"MEAN_ANOMALY":317.0297,"EPHEMERIS_TYPE":0,"CLASSIFICATION_TYPE":"U","NORAD_CAT_ID":33063,"ELEMENT_SET_NO":999,"REV_AT_EPOCH":95273,"BSTAR":0.00031894,"MEAN_MOTION_DOT":2.273e-5,"MEAN_MOTION_DDOT":0},{"OBJECT_NAME":"ORBCOMM FM37","OBJECT_ID":"2008-031E","EPOCH":"2026-03-06T19:02:21.886368","MEAN_MOTION":14.81002383,"ECCENTRICITY":0.0004311,"INCLINATION":48.438,"RA_OF_ASC_NODE":174.0735,"ARG_OF_PERICENTER":63.1385,"MEAN_ANOMALY":76.7122,"EPHEMERIS_TYPE":0,"CLASSIFICATION_TYPE":"U","NORAD_CAT_ID":33064,"ELEMENT_SET_NO":999,"REV_AT_EPOCH":95295,"BSTAR":0.00035621,"MEAN_MOTION_DOT":2.576e-5,"MEAN_MOTION_DDOT":0},{"OBJECT_NAME":"ORBCOMM FM40","OBJECT_ID":"2008-031F","EPOCH":"2026-03-07T04:41:55.550112","MEAN_MOTION":14.83643157,"ECCENTRICITY":0.0005156,"INCLINATION":48.4398,"RA_OF_ASC_NODE":151.4539,"ARG_OF_PERICENTER":84.5598,"MEAN_ANOMALY":293.308,"EPHEMERIS_TYPE":0,"CLASSIFICATION_TYPE":"U","NORAD_CAT_ID":33065,"ELEMENT_SET_NO":999,"REV_AT_EPOCH":95319,"BSTAR":0.0003504,"MEAN_MOTION_DOT":2.706e-5,"MEAN_MOTION_DDOT":0},{"OBJECT_NAME":"VESSELSAT 1","OBJECT_ID":"2011-058C","EPOCH":"2026-03-06T23:02:15.453312","MEAN_MOTION":14.11419838,"ECCENTRICITY":0.001364,"INCLINATION":19.9626,"RA_OF_ASC_NODE":303.7701,"ARG_OF_PERICENTER":196.8928,"MEAN_ANOMALY":163.1022,"EPHEMERIS_TYPE":0,"CLASSIFICATION_TYPE":"U","NORAD_CAT_ID":37840,"ELEMENT_SET_NO":999,"REV_AT_EPOCH":74347,"BSTAR":7.3711e-5,"MEAN_MOTION_DOT":4.01e-6,"MEAN_MOTION_DDOT":0},{"OBJECT_NAME":"ORBCOMM FM109","OBJECT_ID":"2014-040A","EPOCH":"2026-03-06T18:34:18.122304","MEAN_MOTION":14.58718312,"ECCENTRICITY":0.0001244,"INCLINATION":47.002,"RA_OF_ASC_NODE":215.6443,"ARG_OF_PERICENTER":132.5143,"MEAN_ANOMALY":227.5848,"EPHEMERIS_TYPE":0,"CLASSIFICATION_TYPE":"U","NORAD_CAT_ID":40086,"ELEMENT_SET_NO":999,"REV_AT_EPOCH":61939,"BSTAR":0.00023438,"MEAN_MOTION_DOT":9.34e-6,"MEAN_MOTION_DDOT":0},{"OBJECT_NAME":"ORBCOMM FM107","OBJECT_ID":"2014-040B","EPOCH":"2026-03-06T22:12:51.026976","MEAN_MOTION":14.58802267,"ECCENTRICITY":4.68e-5,"INCLINATION":47.0035,"RA_OF_ASC_NODE":215.7789,"ARG_OF_PERICENTER":8.5482,"MEAN_ANOMALY":351.5412,"EPHEMERIS_TYPE":0,"CLASSIFICATION_TYPE":"U","NORAD_CAT_ID":40087,"ELEMENT_SET_NO":999,"REV_AT_EPOCH":61949,"BSTAR":0.00023955,"MEAN_MOTION_DOT":9.6e-6,"MEAN_MOTION_DDOT":0},{"OBJECT_NAME":"ORBCOMM FM106","OBJECT_ID":"2014-040C","EPOCH":"2026-03-07T02:10:34.751136","MEAN_MOTION":14.70295481,"ECCENTRICITY":0.0016545,"INCLINATION":47.0615,"RA_OF_ASC_NODE":15.768,"ARG_OF_PERICENTER":211.9175,"MEAN_ANOMALY":148.0715,"EPHEMERIS_TYPE":0,"CLASSIFICATION_TYPE":"U","NORAD_CAT_ID":40088,"ELEMENT_SET_NO":999,"REV_AT_EPOCH":62215,"BSTAR":0.00026277,"MEAN_MOTION_DOT":1.415e-5,"MEAN_MOTION_DDOT":0},{"OBJECT_NAME":"ORBCOMM FM111","OBJECT_ID":"2014-040D","EPOCH":"2026-03-06T13:10:34.450176","MEAN_MOTION":14.88325727,"ECCENTRICITY":0.00281197,"INCLINATION":46.9998,"RA_OF_ASC_NODE":191.9963,"ARG_OF_PERICENTER":8.4888,"MEAN_ANOMALY":351.648,"EPHEMERIS_TYPE":0,"CLASSIFICATION_TYPE":"U","NORAD_CAT_ID":40089,"ELEMENT_SET_NO":999,"REV_AT_EPOCH":62928,"BSTAR":0.00048456744,"MEAN_MOTION_DOT":4.347e-5,"MEAN_MOTION_DDOT":0},{"OBJECT_NAME":"ORBCOMM FM104","OBJECT_ID":"2014-040E","EPOCH":"2026-03-06T23:59:13.986816","MEAN_MOTION":14.57161534,"ECCENTRICITY":0.0016321,"INCLINATION":47.0037,"RA_OF_ASC_NODE":252.2338,"ARG_OF_PERICENTER":324.7696,"MEAN_ANOMALY":35.2109,"EPHEMERIS_TYPE":0,"CLASSIFICATION_TYPE":"U","NORAD_CAT_ID":40090,"ELEMENT_SET_NO":999,"REV_AT_EPOCH":61894,"BSTAR":0.00018389,"MEAN_MOTION_DOT":6.68e-6,"MEAN_MOTION_DDOT":0},{"OBJECT_NAME":"ORBCOMM FM103","OBJECT_ID":"2014-040F","EPOCH":"2026-03-06T18:37:43.051872","MEAN_MOTION":14.58704952,"ECCENTRICITY":0.0001064,"INCLINATION":47.0039,"RA_OF_ASC_NODE":217.2046,"ARG_OF_PERICENTER":29.6919,"MEAN_ANOMALY":330.4027,"EPHEMERIS_TYPE":0,"CLASSIFICATION_TYPE":"U","NORAD_CAT_ID":40091,"ELEMENT_SET_NO":999,"REV_AT_EPOCH":60243,"BSTAR":0.00025605,"MEAN_MOTION_DOT":1.036e-5,"MEAN_MOTION_DDOT":0},{"OBJECT_NAME":"ORBCOMM FM114","OBJECT_ID":"2015-081A","EPOCH":"2026-03-07T03:13:15.932352","MEAN_MOTION":14.5872473,"ECCENTRICITY":0.0001235,"INCLINATION":47.0042,"RA_OF_ASC_NODE":124.4525,"ARG_OF_PERICENTER":99.6468,"MEAN_ANOMALY":260.4558,"EPHEMERIS_TYPE":0,"CLASSIFICATION_TYPE":"U","NORAD_CAT_ID":41179,"ELEMENT_SET_NO":999,"REV_AT_EPOCH":54285,"BSTAR":0.00018732,"MEAN_MOTION_DOT":7.12e-6,"MEAN_MOTION_DDOT":0},{"OBJECT_NAME":"ORBCOMM FM119","OBJECT_ID":"2015-081B","EPOCH":"2026-03-06T09:07:07.851936","MEAN_MOTION":14.58667361,"ECCENTRICITY":0.00010082,"INCLINATION":47.0012,"RA_OF_ASC_NODE":37.3761,"ARG_OF_PERICENTER":223.884,"MEAN_ANOMALY":136.1965,"EPHEMERIS_TYPE":0,"CLASSIFICATION_TYPE":"U","NORAD_CAT_ID":41180,"ELEMENT_SET_NO":999,"REV_AT_EPOCH":54399,"BSTAR":0.00025247877,"MEAN_MOTION_DOT":1.018e-5,"MEAN_MOTION_DDOT":0}]
