ORBCOMM FM35            
1 25985U 99065F   26066.02702659  .00001200  00000+0  44088-3 0  9998
2 25985  45.0395 291.6953 0003366 281.3634  78.6837 14.37866838372608
ORBCOMM FM34            
1 25986U 99065G   26065.99768387  .00000997  00000+0  37503-3 0  9990
2 25986  45.0391 292.3436 0003191 224.6763 135.3828 14.37778413372712
ORBCOMM FM38            
1 33060U 08031A   26066.23164877  .00002276  00000+0  30548-3 0  9991
2 33060  48.4385 140.4007 0003813  97.1034 263.0316 14.82720525953768
ORBCOMM FM41            
1 33061U 08031B   26065.45572767  .00002546  00000+0  34224-3 0  9991
2 33061  48.4423 152.8330 0003073  72.6188  31.6399 14.82251487953120
ORBCOMM FM29            
1 33062U 08031C   26066.20928522  .00002385  00000+0  32103-3 0  9995
2 33062  48.4375 156.6659 0004695  77.5704 300.8972 14.82429788953154
ORBCOMM FM39            
1 33063U 08031D   26066.03537630  .00002273  00000+0  31894-3 0  9995
2 33063  48.4387 184.8051 0005820  43.1074 317.0297 14.80809328952730
ORBCOMM FM37            
1 33064U 08031E   26065.79330887  .00002576  00000+0  35621-3 0  9991
2 33064  48.4380 174.0735 0004311  63.1385  76.7122 14.81002383952952
ORBCOMM FM40            
1 33065U 08031F   26066.19578183  .00002706  00000+0  35040-3 0  9990
2 33065  48.4398 151.4539 0005156  84.5598 293.3080 14.83643157953193
VESSELSAT 1             
1 37840U 11058C   26065.95990108  .00000401  00000+0  73711-4 0  9994
2 37840  19.9626 303.7701 0013640 196.8928 163.1022 14.11419838743475
ORBCOMM FM109           
1 40086U 14040A   26065.77382086  .00000934  00000+0  23438-3 0  9995
2 40086  47.0020 215.6443 0001244 132.5143 227.5848 14.58718312619392
ORBCOMM FM107           
1 40087U 14040B   26065.92559059  .00000960  00000+0  23955-3 0  9992
2 40087  47.0035 215.7789 0000468   8.5482 351.5412 14.58802267619497
ORBCOMM FM106           
1 40088U 14040C   26066.09067999  .00001415  00000+0  26277-3 0  9995
2 40088  47.0615  15.7680 0016545 211.9175 148.0715 14.70295481622152
ORBCOMM FM111           
1 40089U 14040D   26065.54900984  .00004347  00000+0  48457-3 0  9996
2 40089  46.9998 191.9963 0028119   8.4888 351.6480 14.88325727629284
ORBCOMM FM104           
1 40090U 14040E   26065.99946744  .00000668  00000+0  18389-3 0  9994
2 40090  47.0037 252.2338 0016321 324.7696  35.2109 14.57161534618946
ORBCOMM FM103           
1 40091U 14040F   26065.77619273  .00001036  00000+0  25605-3 0  9994
2 40091  47.0039 217.2046 0001064  29.6919 330.4027 14.58704952602437
ORBCOMM FM114           
1 41179U 15081A   26066.13421218  .00000712  00000+0  18732-3 0  9992
2 41179  47.0042 124.4525 0001235  99.6468 260.4558 14.58724730542852
ORBCOMM FM119           
1 41180U 15081B   26065.37995199  .00001018  00000+0  25248-3 0  9993
2 41180  47.0012  37.3761 0001008 223.8840 136.1965 14.58667361543991
